{
  "norad_id": 68482,
  "name": "TRANSPORTER-16 OBJECT BU",
  "history": [
    {
      "epoch": "2026-04-15T20:36:59.035968Z",
      "apogee_km": 593.5617103398927,
      "perigee_km": 586.4737033720785,
      "latitude_deg": -2.4410176968089778e-05,
      "longitude_deg": -88.14722071783554,
      "height_km": 593.3290490493278,
      "semi_major_axis_km": 6968.154706855985,
      "eccentricity": 0.0005086,
      "inclination_deg": 97.7525,
      "raan_deg": 65.1138,
      "arg_perigee_deg": 94.4932,
      "mean_anomaly_deg": 265.6868,
      "mean_motion_rev_day": 14.92540366
    }
  ]
}