TRANSPORTER-16 OBJECT BU
1 68482U 26067BU  26105.85901663  .00001944  00000+0  19467-3 0  9998
2 68482  97.7525  65.1138 0005086  94.4932 265.6868 14.92540366  2439
